IRIDIUM 155             
1 43573U 18061E   21061.52312912  .00000098  00000-0  28069-4 0  9999
2 43573  86.4001 144.4330 0002209 110.5875 249.5558 14.34216492136354
IRIDIUM 154             
1 43574U 18061F   21061.50409393  .00000080  00000-0  21650-4 0  9998
2 43574  86.4004 144.4825 0002079  90.3734 269.7699 14.34215521136397
IRIDIUM 163             
1 43575U 18061G   21061.48507430  .00000103  00000-0  29623-4 0  9991
2 43575  86.4002 144.4646 0002704  91.6133 268.5372 14.34216107136362
IRIDIUM 156             
1 43576U 18061H   21061.45969463  .00000102  00000-0  29207-4 0  9994
2 43576  86.4002 144.4801 0002558 101.4251 258.7232 14.34220809136342
IRIDIUM 164             
1 43577U 18061J   21061.51043874  .00000099  00000-0  28252-4 0  9995
2 43577  86.4004 144.4699 0002246  90.8204 269.3249 14.34220752136403
IRIDIUM 159             
1 43578U 18061K   21061.47873503  .00000101  00000-0  29156-4 0  9999
2 43578  86.4000 144.4605 0002168  92.1883 267.9561 14.34218826136363
IRIDIUM 180             
1 43922U 19002A   21062.10614646  .00000064  00000-0  15781-4 0  9997
2 43922  86.3922  81.0280 0002493  65.9682 294.1775 14.34219126112108
IRIDIUM 176             
1 43923U 19002B   21061.49724822  .00000100  00000-0  11904-4 0  9991
2 43923  86.6057  81.3146 0002273  87.6391 272.5086 14.72255994114897
IRIDIUM 168             
1 43924U 19002C   21061.68118174  .00000057  00000-0  13444-4 0  9992
2 43924  86.3924  81.2285 0002132  83.9581 276.1858 14.34220509111981
IRIDIUM 173             
1 43925U 19002D   21062.08711391  .00000053  00000-0  12015-4 0  9997
2 43925  86.3921  81.0260 0002205  85.5219 274.6229 14.34215451112039
IRIDIUM 169             
1 43926U 19002E   21061.43651354  .00000085  00000-0  21331-4 0  9994
2 43926  86.4202 112.9171 0003991 197.8637 162.2422 14.38606592112358
IRIDIUM 172             
1 43927U 19002F   21061.87147541  .00000064  00000-0  15738-4 0  9992
2 43927  86.3920  81.1182 0002218  83.2859 276.8589 14.34218255112008
IRIDIUM 175             
1 43928U 19002G   21061.42309844  .00000085  00000-0  95560-5 0  9995
2 43928  86.6041  81.1864 0003052  90.6606 269.4961 14.72248814114877
IRIDIUM 171             
1 43929U 19002H   21061.43382054  .00000060  00000-0  14275-4 0  9997
2 43929  86.3929  81.3931 0002099  84.3250 275.8185 14.34215772111930
IRIDIUM 170             
1 43930U 19002J   21061.50345195  .00000095  00000-0  11072-4 0  9992
2 43930  86.6056  81.3186 0002595  87.3814 272.7701 14.72255992114908
IRIDIUM 167             
1 43931U 19002K   21061.42748366  .00000060  00000-0  14458-4 0  9994
2 43931  86.3921  81.3095 0002328  70.3648 289.7799 14.34216661111930
